NORAD_CAT_ID,OBJECT_NAME,OBJECT_TYPE,EPOCH,MEAN_MOTION,ECCENTRICITY,INCLINATION,RA_OF_ASC_NODE,ARG_OF_PERICENTER,MEAN_ANOMALY,BSTAR,MEAN_MOTION_DOT,MEAN_MOTION_DDOT,TLE_LINE0,TLE_LINE1,TLE_LINE2,SEMIMAJOR_AXIS,PERIOD,APOGEE,PERIGEE,DECAYED
52276.0,STARLINK-3778,PAYLOAD,2022-07-31 14:00:01,15.08821223,0.0002105,53.2173,261.8359,42.0371,118.3669,0.0029948,0.00047673,0.0,0 STARLINK-3778,1 52276U 22041R   22212.58334491  .00047673  00000-0  29948-2 0  9998,2 52276  53.2173 261.8359 0002105  42.0371 118.3669 15.08821223  1304,6917.938,95.439,541.259,538.347,0.0
52276.0,STARLINK-3778,PAYLOAD,2022-07-31 22:00:00,15.08845279,0.0001903,53.2174,260.3378,45.294,126.7081,-0.00024563,-4.196e-05,0.0,0 STARLINK-3778,1 52276U 22041R   22212.91667824 -.00004196  00000-0 -24563-3 0  9998,2 52276  53.2174 260.3378 0001903  45.2940 126.7081 15.08845279  1300,6917.864000000001,95.437,541.0459999999998,538.413,0.0
52276.0,STARLINK-3778,PAYLOAD,2022-08-01 06:00:00,15.088498199999998,0.0001902,53.2176,258.8418,45.6065,137.9923,-0.0026884,-0.00042832,0.0,0 STARLINK-3778,1 52276U 22041R   22213.25001157 -.00042832  00000-0 -26884-2 0  9993,2 52276  53.2176 258.8418 0001902  45.6065 137.9923 15.08849820 16851,6917.85,95.437,541.031,538.4,0.0
52276.0,STARLINK-3778,PAYLOAD,2022-08-01 14:00:01,15.08801531,0.0002044999999999,53.2173,257.3467,40.001,155.1903,0.0027703,0.00044031,0.0,0 STARLINK-3778,1 52276U 22041R   22213.58334491  .00044031  00000-0  27703-2 0  9991,2 52276  53.2173 257.3467 0002045  40.0010 155.1903 15.08801531  1305,6917.998000000001,95.44,541.278,538.448,0.0
52276.0,STARLINK-3778,PAYLOAD,2022-08-01 22:00:00,15.08813713,0.0001843,53.2174,255.8485,44.1631,162.6056,0.0013503,0.00021252,0.0,0 STARLINK-3778,1 52276U 22041R   22213.91667824  .00021252  00000-0  13503-2 0  9990,2 52276  53.2174 255.8485 0001843  44.1631 162.6056 15.08813713  1305,6917.9609999999975,95.439,541.101,538.5509999999998,0.0
52276.0,STARLINK-3778,PAYLOAD,2022-08-02 14:00:01,15.08810292,0.0002043,53.2172,252.8576,40.8441,189.0833,0.0023689,0.00037584,0.0,0 STARLINK-3778,1 52276U 22041R   22214.58334491  .00037584  00000-0  23689-2 0  9996,2 52276  53.2172 252.8576 0002043  40.8441 189.0833 15.08810292 17050,6917.971,95.439,541.25,538.423,0.0
52276.0,STARLINK-3778,PAYLOAD,2022-08-03 06:00:00,15.08846855,0.0001918,53.2173,249.864,46.3225,206.7606,-0.0018509,-0.00029631,0.0,0 STARLINK-3778,1 52276U 22041R   22215.25001157 -.00029631  00000-0 -18509-2 0  9992,2 52276  53.2173 249.8640 0001918  46.3225 206.7606 15.08846855 17150,6917.859,95.437,541.0509999999998,538.398,0.0
52276.0,STARLINK-3778,PAYLOAD,2022-08-03 14:00:01,15.08818129,0.0002049,53.2169,248.3685,42.0704,222.6057,0.0018216999999999,0.00028806,0.0,0 STARLINK-3778,1 52276U 22041R   22215.58334491  .00028806  00000-0  18217-2 0  9995,2 52276  53.2169 248.3685 0002049  42.0704 222.6057 15.08818129  1309,6917.946999999999,95.439,541.23,538.395,0.0
52276.0,STARLINK-3778,PAYLOAD,2022-08-03 22:00:01,15.08812929,0.0001884,53.2169,246.8703,47.1035,229.2263,0.0021685,0.00034367,0.0,0 STARLINK-3778,1 52276U 22041R   22215.91668981  .00034367  00000-0  21685-2 0  9998,2 52276  53.2169 246.8703 0001884  47.1035 229.2263 15.08812929 17257,6917.9630000000025,95.439,541.131,538.525,0.0
52276.0,STARLINK-3778,PAYLOAD,2022-08-04 14:00:01,15.08826083,0.0002089,53.2166,243.8794,42.7647,256.671,0.0012702,0.00019977,0.0,0 STARLINK-3778,1 52276U 22041R   22216.58334491  .00019977  00000-0  12702-2 0  9998,2 52276  53.2166 243.8794 0002089  42.7647 256.6710 15.08826083  1305,6917.9230000000025,95.438,541.2330000000002,538.3430000000002,0.0
52276.0,STARLINK-3778,PAYLOAD,2022-08-04 22:00:00,15.08813646,0.0001943,53.2167,242.3813,48.0124,263.0203,0.0025513,0.00040521,0.0,0 STARLINK-3778,1 52276U 22041R   22216.91667824  .00040521  00000-0  25513-2 0  9997,2 52276  53.2167 242.3813 0001943  48.0124 263.0203 15.08813646  1309,6917.9609999999975,95.439,541.17,538.482,0.0
52276.0,STARLINK-3778,PAYLOAD,2022-08-05 14:00:01,15.08834799,0.0002168,53.2166,239.3902,43.1364,291.1339,0.00078821,0.00012277,0.0,0 STARLINK-3778,1 52276U 22041R   22217.58335648  .00012277  00000-0  78821-3 0  9995,2 52276  53.2166 239.3902 0002168  43.1364 291.1339 15.08834799  1309,6917.896,95.438,541.261,538.261,0.0
52276.0,STARLINK-3778,PAYLOAD,2022-08-05 22:00:00,15.0881705,0.0002029999999999,53.2168,237.8922,48.5317,297.2804,0.0028423,0.0004521,0.0,0 STARLINK-3778,1 52276U 22041R   22217.91667824  .00045210  00000-0  28423-2 0  9991,2 52276  53.2168 237.8922 0002030  48.5317 297.2804 15.08817050  1306,6917.951,95.439,541.22,538.411,0.0
52276.0,STARLINK-3778,PAYLOAD,2022-08-06 14:00:01,15.08844989,0.0002271,53.2168,234.9011,43.7307,325.268,0.00034398,5.191e-05,0.0,0 STARLINK-3778,1 52276U 22041R   22218.58334491  .00005191  00000-0  34398-3 0  9999,2 52276  53.2168 234.9011 0002271  43.7307 325.2680 15.08844989 17656,6917.865,95.437,541.3009999999998,538.159,0.0
52276.0,STARLINK-3778,PAYLOAD,2022-08-06 22:00:00,15.08823788,0.0002123,53.217,233.4031,49.1946,331.4172,0.0029676999999999,0.00047239,0.0,0 STARLINK-3778,1 52276U 22041R   22218.91667824  .00047239  00000-0  29677-2 0  9997,2 52276  53.2170 233.4031 0002123  49.1946 331.4172 15.08823788  1304,6917.93,95.439,541.264,538.326,0.0
52276.0,STARLINK-3778,PAYLOAD,2022-08-07 14:00:01,15.08857211,0.0002355999999999,53.2169,230.412,44.566,359.2467,-0.00053775,-8.841e-05,0.0,0 STARLINK-3778,1 52276U 22041R   22219.58334491 -.00008841  00000-0 -53775-3 0  9997,2 52276  53.2169 230.4120 0002356  44.5660 359.2467 15.08857211  1301,6917.828,95.436,541.323,538.063,0.0
52276.0,STARLINK-3778,PAYLOAD,2022-08-07 22:00:00,15.088277599999998,0.0002174,53.2171,228.914,49.6598,5.7781,0.002245,0.00035611,0.0,0 STARLINK-3778,1 52276U 22041R   22219.91667824  .00035611  00000-0  22450-2 0  9991,2 52276  53.2171 228.9140 0002174  49.6598   5.7781 15.08827760  1300,6917.918000000002,95.438,541.2869999999998,538.279,0.0
52276.0,STARLINK-3778,PAYLOAD,2022-08-08 14:00:01,15.08863897,0.0002358,53.2169,225.9227,44.99800000000001,33.7038,-0.0013001,-0.00020934,0.0,0 STARLINK-3778,1 52276U 22041R   22220.58335648 -.00020934  00000-0 -13001-2 0  9998,2 52276  53.2169 225.9227 0002358  44.9980  33.7038 15.08863897 17963,6917.807,95.436,541.304,538.0409999999998,0.0
52276.0,STARLINK-3778,PAYLOAD,2022-08-08 22:00:00,15.08823756,0.0002133999999999,53.217,224.4249,49.6814,40.584,0.0015236,0.00024033,0.0,0 STARLINK-3778,1 52276U 22041R   22220.91667824  .00024033  00000-0  15236-2 0  9993,2 52276  53.2170 224.4249 0002134  49.6814  40.5840 15.08823756  1301,6917.93,95.439,541.271,538.319,0.0
52276.0,STARLINK-3778,PAYLOAD,2022-08-09 14:00:01,15.08845549,0.0002307,53.2166,221.4336,45.312,68.1232,-0.00088243,-0.00014307,0.0,0 STARLINK-3778,1 52276U 22041R   22221.58334491 -.00014307  00000-0 -88243-3 0  9992,2 52276  53.2166 221.4336 0002307  45.3120  68.1232 15.08845549  1300,6917.863,95.437,541.3240000000002,538.132,0.0
52276.0,STARLINK-3778,PAYLOAD,2022-08-09 22:00:00,15.0883264,0.0002112,53.2167,219.9359,50.4905,74.5448,0.00051935,7.985e-05,0.0,0 STARLINK-3778,1 52276U 22041R   22221.91667824  .00007985  00000-0  51935-3 0  9998,2 52276  53.2167 219.9359 0002112  50.4905  74.5448 15.08832640  1308,6917.903,95.438,541.229,538.307,0.0
52276.0,STARLINK-3778,PAYLOAD,2022-08-10 14:00:01,15.08829606,0.0002228,53.2162,216.9445,45.6205,102.572,-0.0013094,-0.00021062,0.0,0 STARLINK-3778,1 52276U 22041R   22222.58334491 -.00021062  00000-0 -13094-2 0  9990,2 52276  53.2162 216.9445 0002228  45.6205 102.5720 15.08829606  1306,6917.9119999999975,95.438,541.318,538.236,0.0
52276.0,STARLINK-3778,PAYLOAD,2022-08-10 16:00:00,15.08833682,0.0002157,53.2163,216.5699,47.2398,193.8453,-0.0021215,-0.00033889,0.0,0 STARLINK-3778,1 52276U 22041R   22222.66667824 -.00033889  00000-0 -21215-2 0  9992,2 52276  53.2163 216.5699 0002157  47.2398 193.8453 15.08833682 18275,6917.9,95.438,541.257,538.273,0.0
52276.0,STARLINK-3778,PAYLOAD,2022-08-10 22:00:00,15.0880563,0.0002081,53.2163,215.4469,51.5498,108.2195,0.0020831,0.00032989,0.0,0 STARLINK-3778,1 52276U 22041R   22222.91667824  .00032989  00000-0  20831-2 0  9991,2 52276  53.2163 215.4469 0002081  51.5498 108.2195 15.08805630  1304,6917.985,95.44,541.29,538.411,0.0
52276.0,STARLINK-3778,PAYLOAD,2022-08-11 06:00:02,15.08825074,0.0002259,53.2162,213.9522,48.4548,122.9472,-0.00095963,-0.00015523,0.0,0 STARLINK-3778,1 52276U 22041R   22223.25002315 -.00015523  00000-0 -95963-3 0  9993,2 52276  53.2162 213.9522 0002259  48.4548 122.9472 15.08825074 18363,6917.926,95.438,541.354,538.2280000000002,0.0
52276.0,STARLINK-3778,PAYLOAD,2022-08-11 14:00:01,15.08839076,0.0002253,53.2159,212.4555,47.9509,134.9574,-0.0016874,-0.00027043,0.0,0 STARLINK-3778,1 52276U 22041R   22223.58334491 -.00027043  00000-0 -16874-2 0  9995,2 52276  53.2159 212.4555 0002253  47.9509 134.9574 15.08839076  1303,6917.8830000000025,95.438,541.307,538.19,0.0
52276.0,STARLINK-3778,PAYLOAD,2022-08-11 22:00:00,15.08816944,0.0002148,53.2161,210.9579,53.6689,140.8248,0.0019084,0.00030196,0.0,0 STARLINK-3778,1 52276U 22041R   22223.91667824  .00030196  00000-0  19084-2 0  9998,2 52276  53.2161 210.9579 0002148  53.6689 140.8248 15.08816944 18469,6917.951,95.439,541.302,538.33,0.0
52276.0,STARLINK-3778,PAYLOAD,2022-08-12 14:00:01,15.08853826,0.0002298,53.2161,207.9663,49.6293,168.0287,-0.0018042,-0.00028899,0.0,0 STARLINK-3778,1 52276U 22041R   22224.58334491 -.00028899  00000-0 -18042-2 0  9995,2 52276  53.2161 207.9663 0002298  49.6293 168.0287 15.08853826  1301,6917.8380000000025,95.437,541.293,538.113,0.0
52276.0,STARLINK-3778,PAYLOAD,2022-08-12 22:00:01,15.08830862,0.0002238,53.2163,206.4687,55.0326,174.2861,0.0018277999999999,0.00028914,0.0,0 STARLINK-3778,1 52276U 22041R   22224.91668981  .00028914  00000-0  18278-2 0  9993,2 52276  53.2163 206.4687 0002238  55.0326 174.2861 15.08830862  1307,6917.908,95.438,541.322,538.225,0.0
